{"type": "FeatureCollection", "features": [ {"type": "Feature", "properties": {"norad_id": 43437, "name": "SENTINEL-3B", "group": "resource", "lat": 54.79598257396689, "lon": 47.504402227699664, "alt_km": 796.4884916124165, "timestamp": "2025-12-20T20:38:44.101759+00:00", "meta": {"OBJECT_NAME": "SENTINEL-3B", "OBJECT_ID": "2018-039A", "EPOCH": "2025-12-20T01:52:15.630816", "MEAN_MOTION": 14.26736631, "ECCENTRICITY": 0.00016258, "INCLINATION": 98.6258, "RA_OF_ASC_NODE": 59.1578, "ARG_OF_PERICENTER": 94.4485, "MEAN_ANOMALY": 265.6881, "EPHEMERIS_TYPE": 0, "CLASSIFICATION_TYPE": "U", "NORAD_CAT_ID": 43437, "ELEMENT_SET_NO": 999, "REV_AT_EPOCH": 39858, "BSTAR": 5.9718568e-05, "MEAN_MOTION_DOT": 1.01e-06, "MEAN_MOTION_DDOT": 0}, "tle": {"line1": "1 43437U 18039A   25354.07795869  .00000101  00000+0  59719-4 0  9998", "line2": "2 43437  98.6258  59.1578 0001625  94.4485 265.6881 14.26736631398582"}}, "geometry": {"type": "Point", "coordinates": [47.504402227699664, 54.79598257396689]}}, {"type": "Feature", "properties": {"norad_id": 43461, "name": "GAOFEN-5 01", "group": "resource", "lat": -51.287710810826276, "lon": -31.362984645299427, "alt_km": 698.3902723031406, "timestamp": "2025-12-20T20:38:44.101770+00:00", "meta": {"OBJECT_NAME": "GAOFEN-5 01", "OBJECT_ID": "2018-043A", "EPOCH": "2025-12-20T09:22:23.775744", "MEAN_MOTION": 14.60417485, "ECCENTRICITY": 5.345e-05, "INCLINATION": 98.4336, "RA_OF_ASC_NODE": 317.4917, "ARG_OF_PERICENTER": 291.8089, "MEAN_ANOMALY": 68.3053, "EPHEMERIS_TYPE": 0, "CLASSIFICATION_TYPE": "U", "NORAD_CAT_ID": 43461, "ELEMENT_SET_NO": 999, "REV_AT_EPOCH": 40559, "BSTAR": 7.7169973e-05, "MEAN_MOTION_DOT": 3.25e-06, "MEAN_MOTION_DDOT": 0}, "tle": {"line1": "1 43461U 18043A   25354.39055296  .00000325  00000+0  77170-4 0  9997", "line2": "2 43461  98.4336 317.4917 0000534 291.8089  68.3053 14.60417485405592"}}, "geometry": {"type": "Point", "coordinates": [-31.362984645299427, -51.287710810826276]}}, {"type": "Feature", "properties": {"norad_id": 43484, "name": "GAOFEN-6", "group": "resource", "lat": 54.00651718494071, "lon": 47.97306667415046, "alt_km": 626.3367844580034, "timestamp": "2025-12-20T20:38:44.101780+00:00", "meta": {"OBJECT_NAME": "GAOFEN-6", "OBJECT_ID": "2018-048A", "EPOCH": "2025-12-20T13:53:37.069728", "MEAN_MOTION": 14.76580113, "ECCENTRICITY": 0.00128713, "INCLINATION": 97.8029, "RA_OF_ASC_NODE": 58.583, "ARG_OF_PERICENTER": 40.4769, "MEAN_ANOMALY": 319.7396, "EPHEMERIS_TYPE": 0, "CLASSIFICATION_TYPE": "U", "NORAD_CAT_ID": 43484, "ELEMENT_SET_NO": 999, "REV_AT_EPOCH": 40703, "BSTAR": 0.00011111454, "MEAN_MOTION_DOT": 7.27e-06, "MEAN_MOTION_DDOT": 0}, "tle": {"line1": "1 43484U 18048A   25354.57890127  .00000727  00000+0  11111-3 0  9995", "line2": "2 43484  97.8029  58.5830 0012871  40.4769 319.7396 14.76580113407036"}}, "geometry": {"type": "Point", "coordinates": [47.97306667415046, 54.00651718494071]}}, {"type": "Feature", "properties": {"norad_id": 43585, "name": "GAOFEN-11 01", "group": "resource", "lat": -4.88699464014144, "lon": -122.88752568221418, "alt_km": 421.98183695525495, "timestamp": "2025-12-20T20:38:44.101790+00:00", "meta": {"OBJECT_NAME": "GAOFEN-11 01", "OBJECT_ID": "2018-063A", "EPOCH": "2025-12-20T15:12:00.606240", "MEAN_MOTION": 15.49433855, "ECCENTRICITY": 0.00039424, "INCLINATION": 97.1561, "RA_OF_ASC_NODE": 57.5029, "ARG_OF_PERICENTER": 272.8268, "MEAN_ANOMALY": 87.2533, "EPHEMERIS_TYPE": 0, "CLASSIFICATION_TYPE": "U", "NORAD_CAT_ID": 43585, "ELEMENT_SET_NO": 999, "REV_AT_EPOCH": 41264, "BSTAR": 0.00024870313, "MEAN_MOTION_DOT": 0.00013581, "MEAN_MOTION_DDOT": 0}, "tle": {"line1": "1 43585U 18063A   25354.63334035  .00013581  00000+0  24870-3 0  9990", "line2": "2 43585  97.1561  57.5029 0003942 272.8268  87.2533 15.49433855412649"}}, "geometry": {"type": "Point", "coordinates": [-122.88752568221418, -4.88699464014144]}}, {"type": "Feature", "properties": {"norad_id": 43613, "name": "ICESAT-2", "group": "resource", "lat": 24.023072730210604, "lon": -117.96581412685296, "alt_km": 480.88776719026555, "timestamp": "2025-12-20T20:38:44.101800+00:00", "meta": {"OBJECT_NAME": "ICESAT-2", "OBJECT_ID": "2018-070A", "EPOCH": "2025-12-20T14:15:16.408224", "MEAN_MOTION": 15.28233244, "ECCENTRICITY": 0.00028644, "INCLINATION": 92.0047, "RA_OF_ASC_NODE": 242.8569, "ARG_OF_PERICENTER": 120.5392, "MEAN_ANOMALY": 239.614, "EPHEMERIS_TYPE": 0, "CLASSIFICATION_TYPE": "U", "NORAD_CAT_ID": 43613, "ELEMENT_SET_NO": 999, "REV_AT_EPOCH": 40518, "BSTAR": 0.00030980614, "MEAN_MOTION_DOT": 8.521e-05, "MEAN_MOTION_DDOT": 0}, "tle": {"line1": "1 43613U 18070A   25354.59393991  .00008521  00000+0  30981-3 0  9999", "line2": "2 43613  92.0047 242.8569 0002864 120.5392 239.6140 15.28233244405186"}}, "geometry": {"type": "Point", "coordinates": [-117.96581412685296, 24.023072730210604]}}, {"type": "Feature", "properties": {"norad_id": 43719, "name": "HYSIS", "group": "resource", "lat": 28.53248656517461, "lon": -117.81064807926036, "alt_km": 632.3869561733763, "timestamp": "2025-12-20T20:38:44.101810+00:00", "meta": {"OBJECT_NAME": "HYSIS", "OBJECT_ID": "2018-096A", "EPOCH": "2025-12-20T15:05:33.193824", "MEAN_MOTION": 14.78667771, "ECCENTRICITY": 0.00010706, "INCLINATION": 98.0095, "RA_OF_ASC_NODE": 57.5686, "ARG_OF_PERICENTER": 51.9002, "MEAN_ANOMALY": 308.2305, "EPHEMERIS_TYPE": 0, "CLASSIFICATION_TYPE": "U", "NORAD_CAT_ID": 43719, "ELEMENT_SET_NO": 999, "REV_AT_EPOCH": 38103, "BSTAR": 0.00021529917, "MEAN_MOTION_DOT": 1.526e-05, "MEAN_MOTION_DDOT": 0}, "tle": {"line1": "1 43719U 18096A   25354.62885641  .00001526  00000+0  21530-3 0  9994", "line2": "2 43719  98.0095  57.5686 0001070  51.9002 308.2305 14.78667771381039"}}, "geometry": {"type": "Point", "coordinates": [-117.81064807926036, 28.53248656517461]}}, {"type": "Feature", "properties": {"norad_id": 43783, "name": "KAZSTSAT", "group": "resource", "lat": -82.44561749404002, "lon": 110.48332545688254, "alt_km": 572.3984619742923, "timestamp": "2025-12-20T20:38:44.101820+00:00", "meta": {"OBJECT_NAME": "KAZSTSAT", "OBJECT_ID": "2018-099AB", "EPOCH": "2025-12-20T08:13:38.358048", "MEAN_MOTION": 14.99364446, "ECCENTRICITY": 0.00059921, "INCLINATION": 97.453, "RA_OF_ASC_NODE": 29.2006, "ARG_OF_PERICENTER": 296.0464, "MEAN_ANOMALY": 64.0142, "EPHEMERIS_TYPE": 0, "CLASSIFICATION_TYPE": "U", "NORAD_CAT_ID": 43783, "ELEMENT_SET_NO": 999, "REV_AT_EPOCH": 38450, "BSTAR": 2.1221197e-05, "MEAN_MOTION_DOT": 2.04e-06, "MEAN_MOTION_DDOT": 0}, "tle": {"line1": "1 43783U 18099AB  25354.34280507  .00000204  00000+0  21221-4 0  9997", "line2": "2 43783  97.4530  29.2006 0005992 296.0464  64.0142 14.99364446384507"}}, "geometry": {"type": "Point", "coordinates": [110.48332545688254, -82.44561749404002]}}, {"type": "Feature", "properties": {"norad_id": 43831, "name": "SAUDISAT 5A", "group": "resource", "lat": 12.623703245472846, "lon": 53.2418212141684, "alt_km": 483.7061703668096, "timestamp": "2025-12-20T20:38:44.101831+00:00", "meta": {"OBJECT_NAME": "SAUDISAT 5A", "OBJECT_ID": "2018-102A", "EPOCH": "2025-12-20T14:17:38.389344", "MEAN_MOTION": 15.25745605, "ECCENTRICITY": 0.00114011, "INCLINATION": 97.3344, "RA_OF_ASC_NODE": 54.6353, "ARG_OF_PERICENTER": 52.1049, "MEAN_ANOMALY": 308.1219, "EPHEMERIS_TYPE": 0, "CLASSIFICATION_TYPE": "U", "NORAD_CAT_ID": 43831, "ELEMENT_SET_NO": 999, "REV_AT_EPOCH": 38842, "BSTAR": 0.00016725583, "MEAN_MOTION_DOT": 4.203e-05, "MEAN_MOTION_DDOT": 0}, "tle": {"line1": "1 43831U 18102A   25354.59558321  .00004203  00000+0  16726-3 0  9991", "line2": "2 43831  97.3344  54.6353 0011401  52.1049 308.1219 15.25745605388424"}}, "geometry": {"type": "Point", "coordinates": [53.2418212141684, 12.623703245472846]}}, {"type": "Feature", "properties": {"norad_id": 43833, "name": "SAUDISAT 5B", "group": "resource", "lat": 73.7164099088736, "lon": 31.44715380974967, "alt_km": 472.7554610149873, "timestamp": "2025-12-20T20:38:44.101841+00:00", "meta": {"OBJECT_NAME": "SAUDISAT 5B", "OBJECT_ID": "2018-102C", "EPOCH": "2025-12-20T14:01:20.615232", "MEAN_MOTION": 15.26094339, "ECCENTRICITY": 0.00121233, "INCLINATION": 97.3439, "RA_OF_ASC_NODE": 57.3769, "ARG_OF_PERICENTER": 54.1954, "MEAN_ANOMALY": 306.041, "EPHEMERIS_TYPE": 0, "CLASSIFICATION_TYPE": "U", "NORAD_CAT_ID": 43833, "ELEMENT_SET_NO": 999, "REV_AT_EPOCH": 38853, "BSTAR": 0.00015852032, "MEAN_MOTION_DOT": 4.023e-05, "MEAN_MOTION_DDOT": 0}, "tle": {"line1": "1 43833U 18102C   25354.58426638  .00004023  00000+0  15852-3 0  9996", "line2": "2 43833  97.3439  57.3769 0012123  54.1954 306.0410 15.26094339388535"}}, "geometry": {"type": "Point", "coordinates": [31.44715380974967, 73.7164099088736]}}, {"type": "Feature", "properties": {"norad_id": 44622, "name": "GAOFEN-10R", "group": "resource", "lat": -16.518915405444982, "lon": 119.999334836966, "alt_km": 630.4832916441219, "timestamp": "2025-12-20T20:38:44.101851+00:00", "meta": {"OBJECT_NAME": "GAOFEN-10R", "OBJECT_ID": "2019-066A", "EPOCH": "2025-12-20T14:54:12.195936", "MEAN_MOTION": 14.82816223, "ECCENTRICITY": 0.00073483, "INCLINATION": 98.0289, "RA_OF_ASC_NODE": 302.1583, "ARG_OF_PERICENTER": 19.1239, "MEAN_ANOMALY": 341.0249, "EPHEMERIS_TYPE": 0, "CLASSIFICATION_TYPE": "U", "NORAD_CAT_ID": 44622, "ELEMENT_SET_NO": 999, "REV_AT_EPOCH": 33591, "BSTAR": 0.000138185, "MEAN_MOTION_DOT": 1.064e-05, "MEAN_MOTION_DDOT": 0}, "tle": {"line1": "1 44622U 19066A   25354.62097449  .00001064  00000+0  13819-3 0  9995", "line2": "2 44622  98.0289 302.1583 0007348  19.1239 341.0249 14.82816223335916"}}, "geometry": {"type": "Point", "coordinates": [119.999334836966, -16.518915405444982]}}]}